{
  "type": "FeatureCollection",
  "features": [
    {
      "type": "Feature",
      "properties": {
        "norad_id": 40938,
        "name": "BEIDOU-3S IGSO-2S (C56)",
        "group": "beidou",
        "lat": -9.123127223241822,
        "lon": -107.00389543750141,
        "alt_km": 36028.96941171034,
        "timestamp": "2025-12-25T03:55:56.622715+00:00",
        "meta_object_name": "BEIDOU-3S IGSO-2S (C56)",
        "meta_object_id": "2015-053A",
        "meta_epoch": "2025-12-24T16:58:26.308416",
        "meta_mean_motion": 1.00267681,
        "meta_eccentricity": 0.0060658,
        "meta_inclination": 49.4921,
        "meta_ra_of_asc_node": 260.8653,
        "meta_arg_of_pericenter": 188.5708,
        "meta_mean_anomaly": 354.4321,
        "meta_ephemeris_type": 0,
        "meta_classification_type": "U",
        "meta_norad_cat_id": 40938,
        "meta_element_set_no": 999,
        "meta_rev_at_epoch": 3760,
        "meta_bstar": 0,
        "meta_mean_motion_dot": -1.14e-06,
        "meta_mean_motion_ddot": 0,
        "tle_line1": "1 40938U 15053A   25358.70724894 -.00000114  00000+0  00000+0 0  9997",
        "tle_line2": "2 40938  49.4921 260.8653 0060658 188.5708 354.4321  1.00267681 37606"
      },
      "geometry": {
        "type": "Point",
        "coordinates": [
          -107.00389543750141,
          -9.123127223241822
        ]
      }
    },
    {
      "type": "Feature",
      "properties": {
        "norad_id": 41434,
        "name": "BEIDOU-2 IGSO-6 (C13)",
        "group": "beidou",
        "lat": -22.68771940408774,
        "lon": -126.21355769306078,
        "alt_km": 35549.34592174299,
        "timestamp": "2025-12-25T03:55:56.622732+00:00",
        "meta_object_name": "BEIDOU-2 IGSO-6 (C13)",
        "meta_object_id": "2016-021A",
        "meta_epoch": "2025-12-24T14:08:03.685920",
        "meta_mean_motion": 1.00290884,
        "meta_eccentricity": 0.0060832,
        "meta_inclination": 59.9811,
        "meta_ra_of_asc_node": 39.7798,
        "meta_arg_of_pericenter": 230.476,
        "meta_mean_anomaly": 128.7548,
        "meta_ephemeris_type": 0,
        "meta_classification_type": "U",
        "meta_norad_cat_id": 41434,
        "meta_element_set_no": 999,
        "meta_rev_at_epoch": 3572,
        "meta_bstar": 0,
        "meta_mean_motion_dot": -1.33e-06,
        "meta_mean_motion_ddot": 0,
        "tle_line1": "1 41434U 16021A   25358.58893155 -.00000133  00000+0  00000+0 0  9999",
        "tle_line2": "2 41434  59.9811  39.7798 0060832 230.4760 128.7548  1.00290884 35729"
      },
      "geometry": {
        "type": "Point",
        "coordinates": [
          -126.21355769306078,
          -22.68771940408774
        ]
      }
    },
    {
      "type": "Feature",
      "properties": {
        "norad_id": 41586,
        "name": "BEIDOU-2 G7 (C03)",
        "group": "beidou",
        "lat": -0.4938363219029293,
        "lon": -96.68491033247024,
        "alt_km": 35808.29076652521,
        "timestamp": "2025-12-25T03:55:56.622745+00:00",
        "meta_object_name": "BEIDOU-2 G7 (C03)",
        "meta_object_id": "2016-037A",
        "meta_epoch": "2025-12-24T20:28:21.205344",
        "meta_mean_motion": 1.00268909,
        "meta_eccentricity": 0.0005195,
        "meta_inclination": 1.7846,
        "meta_ra_of_asc_node": 67.8918,
        "meta_arg_of_pericenter": 0.9994,
        "meta_mean_anomaly": 82.25,
        "meta_ephemeris_type": 0,
        "meta_classification_type": "U",
        "meta_norad_cat_id": 41586,
        "meta_element_set_no": 999,
        "meta_rev_at_epoch": 514,
        "meta_bstar": 0,
        "meta_mean_motion_dot": -3.32e-06,
        "meta_mean_motion_ddot": 0,
        "tle_line1": "1 41586U 16037A   25358.85302321 -.00000332  00000+0  00000+0 0  9995",
        "tle_line2": "2 41586   1.7846  67.8918 0005195   0.9994  82.2500  1.00268909  5144"
      },
      "geometry": {
        "type": "Point",
        "coordinates": [
          -96.68491033247024,
          -0.4938363219029293
        ]
      }
    },
    {
      "type": "Feature",
      "properties": {
        "norad_id": 43001,
        "name": "BEIDOU-3 M1 (C19)",
        "group": "beidou",
        "lat": 2.38807918476192,
        "lon": 70.41994711793319,
        "alt_km": 21514.416862593007,
        "timestamp": "2025-12-25T03:55:56.622758+00:00",
        "meta_object_name": "BEIDOU-3 M1 (C19)",
        "meta_object_id": "2017-069A",
        "meta_epoch": "2025-12-24T02:03:22.336416",
        "meta_mean_motion": 1.86231054,
        "meta_eccentricity": 0.00099,
        "meta_inclination": 56.5357,
        "meta_ra_of_asc_node": 68.8595,
        "meta_arg_of_pericenter": 302.4649,
        "meta_mean_anomaly": 57.4938,
        "meta_ephemeris_type": 0,
        "meta_classification_type": "U",
        "meta_norad_cat_id": 43001,
        "meta_element_set_no": 999,
        "meta_rev_at_epoch": 5534,
        "meta_bstar": 0,
        "meta_mean_motion_dot": -2.4e-07,
        "meta_mean_motion_ddot": 0,
        "tle_line1": "1 43001U 17069A   25358.08567519 -.00000024  00000+0  00000+0 0  9990",
        "tle_line2": "2 43001  56.5357  68.8595 0009900 302.4649  57.4938  1.86231054 55341"
      },
      "geometry": {
        "type": "Point",
        "coordinates": [
          70.41994711793319,
          2.38807918476192
        ]
      }
    },
    {
      "type": "Feature",
      "properties": {
        "norad_id": 43002,
        "name": "BEIDOU-3 M2 (C20)",
        "group": "beidou",
        "lat": 35.58207400524021,
        "lon": 97.08108445538608,
        "alt_km": 21519.321020620326,
        "timestamp": "2025-12-25T03:55:56.622770+00:00",
        "meta_object_name": "BEIDOU-3 M2 (C20)",
        "meta_object_id": "2017-069B",
        "meta_epoch": "2025-12-22T09:54:58.962816",
        "meta_mean_motion": 1.86231087,
        "meta_eccentricity": 0.00067293,
        "meta_inclination": 56.5339,
        "meta_ra_of_asc_node": 68.9503,
        "meta_arg_of_pericenter": 327.7398,
        "meta_mean_anomaly": 32.2697,
        "meta_ephemeris_type": 0,
        "meta_classification_type": "U",
        "meta_norad_cat_id": 43002,
        "meta_element_set_no": 999,
        "meta_rev_at_epoch": 5530,
        "meta_bstar": 0,
        "meta_mean_motion_dot": -2.8e-07,
        "meta_mean_motion_ddot": 0,
        "tle_line1": "1 43002U 17069B   25356.41318244 -.00000028  00000+0  00000+0 0  9999",
        "tle_line2": "2 43002  56.5339  68.9503 0006729 327.7398  32.2697  1.86231087 55304"
      },
      "geometry": {
        "type": "Point",
        "coordinates": [
          97.08108445538608,
          35.58207400524021
        ]
      }
    },
    {
      "type": "Feature",
      "properties": {
        "norad_id": 43107,
        "name": "BEIDOU-3 M7 (C27)",
        "group": "beidou",
        "lat": -29.094918332178672,
        "lon": 151.75548714294428,
        "alt_km": 21538.748710709508,
        "timestamp": "2025-12-25T03:55:56.622781+00:00",
        "meta_object_name": "BEIDOU-3 M7 (C27)",
        "meta_object_id": "2018-003A",
        "meta_epoch": "2025-12-23T05:31:08.538816",
        "meta_mean_motion": 1.86232625,
        "meta_eccentricity": 0.0002961,
        "meta_inclination": 54.4874,
        "meta_ra_of_asc_node": 308.4506,
        "meta_arg_of_pericenter": 66.5422,
        "meta_mean_anomaly": 293.4915,
        "meta_ephemeris_type": 0,
        "meta_classification_type": "U",
        "meta_norad_cat_id": 43107,
        "meta_element_set_no": 999,
        "meta_rev_at_epoch": 5407,
        "meta_bstar": 0,
        "meta_mean_motion_dot": -5.5e-07,
        "meta_mean_motion_ddot": 0,
        "tle_line1": "1 43107U 18003A   25357.22995994 -.00000055  00000+0  00000+0 0  9997",
        "tle_line2": "2 43107  54.4874 308.4506 0002961  66.5422 293.4915  1.86232625 54072"
      },
      "geometry": {
        "type": "Point",
        "coordinates": [
          151.75548714294428,
          -29.094918332178672
        ]
      }
    },
    {
      "type": "Feature",
      "properties": {
        "norad_id": 43108,
        "name": "BEIDOU-3 M8 (C28)",
        "group": "beidou",
        "lat": -51.27331275186489,
        "lon": -168.79933084235046,
        "alt_km": 21522.156928714314,
        "timestamp": "2025-12-25T03:55:56.622793+00:00",
        "meta_object_name": "BEIDOU-3 M8 (C28)",
        "meta_object_id": "2018-003B",
        "meta_epoch": "2025-12-24T05:58:21.185184",
        "meta_mean_motion": 1.86231107,
        "meta_eccentricity": 0.0004589,
        "meta_inclination": 54.4794,
        "meta_ra_of_asc_node": 308.398,
        "meta_arg_of_pericenter": 279.3969,
        "meta_mean_anomaly": 80.5568,
        "meta_ephemeris_type": 0,
        "meta_classification_type": "U",
        "meta_norad_cat_id": 43108,
        "meta_element_set_no": 999,
        "meta_rev_at_epoch": 5410,
        "meta_bstar": 0,
        "meta_mean_motion_dot": -5.4e-07,
        "meta_mean_motion_ddot": 0,
        "tle_line1": "1 43108U 18003B   25358.24885631 -.00000054  00000+0  00000+0 0  9996",
        "tle_line2": "2 43108  54.4794 308.3980 0004589 279.3969  80.5568  1.86231107 54104"
      },
      "geometry": {
        "type": "Point",
        "coordinates": [
          -168.79933084235046,
          -51.27331275186489
        ]
      }
    }
  ]
}